{"type":"Feature","geometry":{"type":"Polygon","coordinates":[[[4.81349,45.74776],[4.80244,45.75172],[4.79887,45.75011],[4.79661,45.74971],[4.78863,45.7465],[4.78377,45.74419],[4.77857,45.74736],[4.77747,45.74707],[4.77533,45.74815],[4.77286,45.75058],[4.77171,45.75079],[4.77328,45.75287],[4.77959,45.7544],[4.78196,45.75426],[4.78205,45.75642],[4.78513,45.75901],[4.78571,45.76196],[4.78698,45.76561],[4.78901,45.76638],[4.79075,45.76829],[4.79127,45.77139],[4.79246,45.77329],[4.79523,45.77577],[4.79059,45.78193],[4.79179,45.78446],[4.79211,45.78646],[4.78577,45.78574],[4.78422,45.78732],[4.78577,45.78871],[4.78867,45.78953],[4.79078,45.79061],[4.79342,45.78902],[4.79769,45.78983],[4.7968,45.79137],[4.80267,45.7917],[4.80773,45.78848],[4.80905,45.79192],[4.8143,45.79418],[4.81826,45.79936],[4.81962,45.79952],[4.82039,45.80216],[4.82391,45.80203],[4.82409,45.80441],[4.8279,45.80474],[4.83216,45.80667],[4.8323,45.80545],[4.83396,45.80483],[4.83572,45.80559],[4.83694,45.80818],[4.83767,45.80726],[4.83855,45.80396],[4.84148,45.80344],[4.84,45.80133],[4.83701,45.79824],[4.83534,45.79732],[4.82871,45.79581],[4.82305,45.7926],[4.81931,45.78975],[4.82217,45.78767],[4.82387,45.78408],[4.83366,45.78157],[4.83751,45.78269],[4.84128,45.77919],[4.84305,45.7786],[4.84499,45.78145],[4.84653,45.78294],[4.84965,45.78495],[4.85312,45.78639],[4.85596,45.78664],[4.8604,45.78645],[4.85947,45.7777],[4.85833,45.77244],[4.86112,45.77188],[4.86373,45.76881],[4.86796,45.76638],[4.87183,45.7613],[4.8744,45.76056],[4.87385,45.75878],[4.87646,45.75815],[4.87607,45.75536],[4.88476,45.75405],[4.89368,45.7538],[4.89901,45.75245],[4.89818,45.75248],[4.89616,45.74636],[4.89229,45.73902],[4.88881,45.7332],[4.88683,45.72947],[4.88699,45.72595],[4.8873,45.72149],[4.88134,45.72192],[4.88083,45.72147],[4.86279,45.72654],[4.85955,45.7304],[4.85367,45.72958],[4.85442,45.71926],[4.84972,45.71906],[4.83749,45.71852],[4.83826,45.71283],[4.84055,45.70805],[4.83724,45.70732],[4.83368,45.70955],[4.82716,45.71177],[4.82434,45.71332],[4.82305,45.71461],[4.82068,45.71889],[4.81897,45.7251],[4.81833,45.72515],[4.81714,45.73017],[4.81486,45.7323],[4.81427,45.73357],[4.81321,45.73867],[4.81366,45.74272],[4.81528,45.74587],[4.81829,45.74873],[4.81692,45.74966],[4.81473,45.74972],[4.81349,45.74776]]]},"properties":{"code":"69123","nom":"Lyon"}}